CZ-2C R/B               
1 52794U 22058K   25337.06101138  .00036874  00000+0  67390-3 0  9999
2 52794  50.1899  92.8822 0046573 158.5602 201.7330 15.47772115195139
CZ-2C R/B               
1 54039U 22132E   25337.07863663  .00041168  00000+0  63098-3 0  9998
2 54039  97.2940 333.0992 0023877  88.5139 271.8850 15.53884201175331
GSLV R/B                
1 54149U 22138AN  25337.15730172  .00004065  00000+0  35779-3 0  9993
2 54149  87.3836 198.6821 0023187 137.2684 223.0356 14.96049440169498
XRISM                   
1 57800U 23137A   25336.85448532  .00006730  00000+0  39603-3 0  9993
2 57800  31.0000 189.3635 0007645 145.2605 214.8533 15.10197227123137
ACS3                    
1 59588U 24077B   25336.92983706  .00010319  00000+0  89823-2 0  9993
2 59588  97.2777 294.7268 0077178 358.7179   1.3772 13.84679768 80786
