CCSDS_OMM_VERS = 2.0
CREATION_DATE  = 
ORIGINATOR     = 

OBJECT_NAME    = CZ-2C R/B
OBJECT_ID      = 2022-058K
CENTER_NAME    = EARTH
REF_FRAME      = TEME
TIME_SYSTEM    = UTC
MEAN_ELEMENT_THEORY = SGP/SGP4

EPOCH          = 2025-12-03T01:27:51.383232
MEAN_MOTION    = 15.47772115
ECCENTRICITY   = .0046573
INCLINATION    = 50.1899
RA_OF_ASC_NODE = 92.8822
ARG_OF_PERICENTER = 158.5602
MEAN_ANOMALY   = 201.7330

EPHEMERIS_TYPE = 0
CLASSIFICATION_TYPE = U
NORAD_CAT_ID   = 52794
ELEMENT_SET_NO = 999
REV_AT_EPOCH   = 19513
BSTAR          = .6739E-3
MEAN_MOTION_DOT = .36874E-3
MEAN_MOTION_DDOT = 0

CCSDS_OMM_VERS = 2.0
CREATION_DATE  = 
ORIGINATOR     = 

OBJECT_NAME    = CZ-2C R/B
OBJECT_ID      = 2022-132E
CENTER_NAME    = EARTH
REF_FRAME      = TEME
TIME_SYSTEM    = UTC
MEAN_ELEMENT_THEORY = SGP/SGP4

EPOCH          = 2025-12-03T01:53:14.204832
MEAN_MOTION    = 15.53884201
ECCENTRICITY   = .0023877
INCLINATION    = 97.2940
RA_OF_ASC_NODE = 333.0992
ARG_OF_PERICENTER = 88.5139
MEAN_ANOMALY   = 271.8850

EPHEMERIS_TYPE = 0
CLASSIFICATION_TYPE = U
NORAD_CAT_ID   = 54039
ELEMENT_SET_NO = 999
REV_AT_EPOCH   = 17533
BSTAR          = .63098E-3
MEAN_MOTION_DOT = .41168E-3
MEAN_MOTION_DDOT = 0

CCSDS_OMM_VERS = 2.0
CREATION_DATE  = 
ORIGINATOR     = 

OBJECT_NAME    = GSLV R/B
OBJECT_ID      = 2022-138AN
CENTER_NAME    = EARTH
REF_FRAME      = TEME
TIME_SYSTEM    = UTC
MEAN_ELEMENT_THEORY = SGP/SGP4

EPOCH          = 2025-12-03T03:46:30.868608
MEAN_MOTION    = 14.96049440
ECCENTRICITY   = .0023187
INCLINATION    = 87.3836
RA_OF_ASC_NODE = 198.6821
ARG_OF_PERICENTER = 137.2684
MEAN_ANOMALY   = 223.0356

EPHEMERIS_TYPE = 0
CLASSIFICATION_TYPE = U
NORAD_CAT_ID   = 54149
ELEMENT_SET_NO = 999
REV_AT_EPOCH   = 16949
BSTAR          = .35779E-3
MEAN_MOTION_DOT = .4065E-4
MEAN_MOTION_DDOT = 0

CCSDS_OMM_VERS = 2.0
CREATION_DATE  = 
ORIGINATOR     = 

OBJECT_NAME    = XRISM
OBJECT_ID      = 2023-137A
CENTER_NAME    = EARTH
REF_FRAME      = TEME
TIME_SYSTEM    = UTC
MEAN_ELEMENT_THEORY = SGP/SGP4

EPOCH          = 2025-12-02T20:30:27.531648
MEAN_MOTION    = 15.10197227
ECCENTRICITY   = .0007645
INCLINATION    = 31.0000
RA_OF_ASC_NODE = 189.3635
ARG_OF_PERICENTER = 145.2605
MEAN_ANOMALY   = 214.8533

EPHEMERIS_TYPE = 0
CLASSIFICATION_TYPE = U
NORAD_CAT_ID   = 57800
ELEMENT_SET_NO = 999
REV_AT_EPOCH   = 12313
BSTAR          = .39603E-3
MEAN_MOTION_DOT = .673E-4
MEAN_MOTION_DDOT = 0

CCSDS_OMM_VERS = 2.0
CREATION_DATE  = 
ORIGINATOR     = 

OBJECT_NAME    = ACS3
OBJECT_ID      = 2024-077B
CENTER_NAME    = EARTH
REF_FRAME      = TEME
TIME_SYSTEM    = UTC
MEAN_ELEMENT_THEORY = SGP/SGP4

EPOCH          = 2025-12-02T22:18:57.921984
MEAN_MOTION    = 13.84679768
ECCENTRICITY   = .0077178
INCLINATION    = 97.2777
RA_OF_ASC_NODE = 294.7268
ARG_OF_PERICENTER = 358.7179
MEAN_ANOMALY   = 1.3772

EPHEMERIS_TYPE = 0
CLASSIFICATION_TYPE = U
NORAD_CAT_ID   = 59588
ELEMENT_SET_NO = 999
REV_AT_EPOCH   = 8078
BSTAR          = .89823E-2
MEAN_MOTION_DOT = .10319E-3
MEAN_MOTION_DDOT = 0

